IRIDIUM 63              
1 25286U 98021B   26013.45517912  .00000370  00000+0  11873-3 0  9991
2 25286  86.3995 353.9033 0002053  83.1354 277.0077 14.36766814454037
IRIDIUM 69              
1 25319U 98026A   26013.51350644  .00000306  00000+0  88631-4 0  9993
2 25319  86.3979   6.5017 0004354  68.1722 291.9940 14.41248561453355
IRIDIUM 71              
1 25320U 98026B   26013.49816000  .00000257  00000+0  73402-4 0  9990
2 25320  86.3981   1.1791 0004202 100.9554 259.2118 14.41341433453884
IRIDIUM 73              
1 25344U 98032C   26013.27259852  .00000563  00000+0  13417-3 0  9994
2 25344  86.4433 317.5901 0002470  69.9684 290.1787 14.52042022461040
IRIDIUM 82              
1 25467U 98051A   26013.45039523  .00038557  00000+0  64771-3 0  9995
2 25467  86.3596   5.1017 0056122 205.5259 154.3228 15.49783057456303
